[{"OBJECT_NAME":"STARLINK-3944","OBJECT_ID":"2022-051M","EPOCH":"2026-03-09T10:42:59.541408","MEAN_MOTION":15.0882908,"ECCENTRICITY":0.00013948,"INCLINATION":53.2167,"RA_OF_ASC_NODE":135.2256,"ARG_OF_PERICENTER":86.1024,"MEAN_ANOMALY":274.0128,"EPHEMERIS_TYPE":0,"CLASSIFICATION_TYPE":"U","NORAD_CAT_ID":52544,"ELEMENT_SET_NO":999,"REV_AT_EPOCH":21133,"BSTAR":-3.7713176e-5,"MEAN_MOTION_DOT":-8.88e-6,"MEAN_MOTION_DDOT":0},{"OBJECT_NAME":"OBJECT C","OBJECT_ID":"2025-013C","EPOCH":"2026-03-09T23:45:12.010176","MEAN_MOTION":15.10546453,"ECCENTRICITY":0.00141064,"INCLINATION":97.6424,"RA_OF_ASC_NODE":238.1264,"ARG_OF_PERICENTER":358.7826,"MEAN_ANOMALY":1.3366,"EPHEMERIS_TYPE":0,"CLASSIFICATION_TYPE":"U","NORAD_CAT_ID":62731,"ELEMENT_SET_NO":999,"REV_AT_EPOCH":6235,"BSTAR":0.00030324361,"MEAN_MOTION_DOT":4.947e-5,"MEAN_MOTION_DDOT":0}]
